IRIDIUM 170             
1 43930U 19002J   24127.93567934  .00000531  00000+0  80256-4 0  9996
2 43930  86.6065 315.9508 0002299  88.3159 271.8321 14.72241787285786
IRIDIUM 167             
1 43931U 19002K   24127.93377995 -.00000008  00000+0 -99209-5 0  9993
2 43931  86.3932 315.9192 0002004  90.4128 269.7297 14.34215812278418
IRIDIUM 181             
1 56726U 23068S   24127.93308605  .00000486  00000+0  13763-3 0  9995
2 56726  86.8672   7.6340 0002065  86.8320 273.3117 14.43599048 51181
IRIDIUM 177             
1 56727U 23068T   24127.85307422  .00001902  00000+0  24680-3 0  9997
2 56727  86.1967 334.9969 0002039  99.7881 260.3571 14.80242114 52261
IRIDIUM 174             
1 56728U 23068U   24127.84761709  .00001902  00000+0  24685-3 0  9994
2 56728  86.1974 335.0999 0002407  82.5215 277.6279 14.80236433 52268
IRIDIUM 178             
1 56729U 23068V   24127.90986068  .00001821  00000+0  23615-3 0  9991
2 56729  86.5798 350.5742 0002965  79.0517 281.1038 14.80241169 52276
IRIDIUM 179             
1 56730U 23068W   24127.90434048  .00001784  00000+0  23121-3 0  9999
2 56730  86.6813 354.1892 0002702  83.8320 276.3210 14.80251121 52274
